{
  "norad_id": 52341,
  "name": "STARLINK-3843",
  "history": [
    {
      "epoch": "2026-03-28T12:05:33.745920",
      "apogee_km": 540.7186619235699,
      "perigee_km": 538.7747366040767,
      "latitude_deg": -53.1954253746125,
      "longitude_deg": -177.52917120000347,
      "semi_major_axis_km": 6917.883699263823,
      "eccentricity": 0.0001405,
      "inclination_deg": 53.2174,
      "raan_deg": 124.6122,
      "arg_perigee_deg": 93.0203,
      "mean_anomaly_deg": 267.0949,
      "mean_motion_rev_day": 15.08838917
    }
  ]
}